QIANFAN-49              
1 62250U 24232P   25326.76872782  .00000205  00000+0  29838-3 0  9992
2 62250  89.0043  43.2478 0012643 247.9144 112.0665 13.50978615 65148
QIANFAN-50              
1 62251U 24232Q   25326.71935045  .00000160  00000+0  22912-3 0  9996
2 62251  89.0048  43.2596 0014264 250.0996 109.8619 13.50974161 65163
QIANFAN-51              
1 62252U 24232R   25326.77696042  .00000116  00000+0  16172-3 0  9996
2 62252  89.0042  43.2491 0011693 253.2342 106.7526 13.50972700 65165
QIANFAN-52              
1 62253U 24232S   25326.73171170  .00000192  00000+0  27846-3 0  9997
2 62253  89.0039  43.1280 0013838 245.4604 114.5105 13.50977939 65242
QIANFAN-53              
1 62254U 24232T   25326.71111830  .00000169  00000+0  24338-3 0  9990
2 62254  89.0046  43.2330 0012703 246.3379 113.6439 13.50973000 65208
QIANFAN-54              
1 62255U 24232U   25326.75231223  .00000175  00000+0  25196-3 0  9994
2 62255  89.0037  42.9092 0000269 343.9781  16.1362 13.50973204 96713
QIANFAN-55              
1 62785U 25016A   25326.77855821  .00000106  00000+0  14480-3 0  9999
2 62785  88.9765 105.2687 0018333  50.4347 309.8420 13.50981334 44497
QIANFAN-56              
1 62786U 25016B   25326.79485013  .00000123  00000+0  17091-3 0  9994
2 62786  88.9738 105.1088 0017034  52.9517 307.3189 13.50982118 44547
